{"type": "FeatureCollection", "features": [{"type": "Feature", "properties": {"state": "Perlis"}, "geometry": {"type": "Polygon", "coordinates": [[[100.175, 6.726], [100.4, 6.726], [100.4, 6.4], [100.175, 6.4], [100.175, 6.726]]]}}, {"type": "Feature", "properties": {"state": "Kedah"}, "geometry": {"type": "Polygon", "coordinates": [[[100.175, 6.726], [100.7, 6.726], [100.9, 5.9], [100.3, 5.5], [99.9, 5.7], [100.175, 6.726]]]}}, {"type": "Feature", "properties": {"state": "Pulau Pinang"}, "geometry": {"type": "Polygon", "coordinates": [[[100.2, 5.55], [100.5, 5.55], [100.5, 5.2], [100.2, 5.2], [100.2, 5.55]]]}}, {"type": "Feature", "properties": {"state": "Perak"}, "geometry": {"type": "Polygon", "coordinates": [[[100.3, 5.5], [101.2, 5.5], [101.5, 4.5], [101.2, 3.8], [100.7, 3.9], [100.2, 4.5], [100.3, 5.5]]]}}, {"type": "Feature", "properties": {"state": "Selangor"}, "geometry": {"type": "Polygon", "coordinates": [[[101.2, 3.8], [101.8, 3.8], [101.8, 2.9], [101.2, 2.7], [100.9, 3.2], [101.2, 3.8]]]}}, {"type": "Feature", "properties": {"state": "W.P. Kuala Lumpur"}, "geometry": {"type": "Polygon", "coordinates": [[[101.6, 3.25], [101.8, 3.25], [101.8, 3.05], [101.6, 3.05], [101.6, 3.25]]]}}, {"type": "Feature", "properties": {"state": "W.P. Putrajaya"}, "geometry": {"type": "Polygon", "coordinates": [[[101.68, 2.98], [101.75, 2.98], [101.75, 2.92], [101.68, 2.92], [101.68, 2.98]]]}}, {"type": "Feature", "properties": {"state": "Negeri Sembilan"}, "geometry": {"type": "Polygon", "coordinates": [[[101.8, 3.2], [102.5, 3.2], [102.5, 2.6], [101.8, 2.6], [101.8, 3.2]]]}}, {"type": "Feature", "properties": {"state": "Melaka"}, "geometry": {"type": "Polygon", "coordinates": [[[101.9, 2.6], [102.4, 2.6], [102.4, 2.1], [101.9, 2.1], [101.9, 2.6]]]}}, {"type": "Feature", "properties": {"state": "Johor"}, "geometry": {"type": "Polygon", "coordinates": [[[102.4, 2.6], [104.2, 2.6], [104.5, 1.7], [103.2, 1.3], [102.0, 1.8], [101.8, 2.6], [102.4, 2.6]]]}}, {"type": "Feature", "properties": {"state": "Pahang"}, "geometry": {"type": "Polygon", "coordinates": [[[101.5, 4.5], [103.5, 4.5], [103.9, 3.5], [103.5, 2.6], [102.5, 2.6], [101.8, 3.2], [101.5, 4.5]]]}}, {"type": "Feature", "properties": {"state": "Terengganu"}, "geometry": {"type": "Polygon", "coordinates": [[[102.5, 5.5], [103.9, 5.5], [103.9, 3.8], [102.5, 4.5], [102.5, 5.5]]]}}, {"type": "Feature", "properties": {"state": "Kelantan"}, "geometry": {"type": "Polygon", "coordinates": [[[101.5, 6.2], [102.5, 6.2], [102.5, 5.5], [101.7, 5.0], [101.2, 5.2], [101.5, 6.2]]]}}, {"type": "Feature", "properties": {"state": "Sabah"}, "geometry": {"type": "Polygon", "coordinates": [[[115.8, 7.4], [118.5, 7.4], [119.3, 6.2], [117.8, 4.2], [115.8, 4.8], [115.8, 7.4]]]}}, {"type": "Feature", "properties": {"state": "Sarawak"}, "geometry": {"type": "Polygon", "coordinates": [[[109.6, 4.2], [115.8, 4.2], [115.8, 1.0], [110.3, 1.0], [109.6, 4.2]]]}}, {"type": "Feature", "properties": {"state": "W.P. Labuan"}, "geometry": {"type": "Polygon", "coordinates": [[[115.1, 5.45], [115.3, 5.45], [115.3, 5.25], [115.1, 5.25], [115.1, 5.45]]]}}]}